*******************************************************************************
Ephemeris / WWW_USER Fri Mar  7 11:20:33 2025 Pasadena, USA      / Horizons    
*******************************************************************************
Target body name: (2018 VN1)                      {source: JPL#9}
Center body name: Earth (399)                     {source: DE441}
Center-site name: Mauna Kea
*******************************************************************************
Start time      : A.D. 2018-Dec-24 03:59:00.0000 UT      
Stop  time      : A.D. 2018-Dec-24 16:43:00.0000 UT      
Step-size       : 1 minutes
*******************************************************************************
Target pole/equ : undefined
Target radii    : undefined                                                    
Center geodetic : 204.5278, 19.8260847, 4.21024   {E-lon(deg),Lat(deg),Alt(km)}
Center cylindric: 204.5278, 6006.35451, 2151.0229 {E-lon(deg),Dxy(km),Dz(km)}
Center pole/equ : ITRF93                          {East-longitude positive}
Center radii    : 6378.137, 6378.137, 6356.752 km {Equator_a, b, pole_c}       
Target primary  : Sun
Vis. interferer : MOON (R_eq= 1737.400) km        {source: DE441}
Rel. light bend : Sun                             {source: DE441}
Rel. lght bnd GM: 1.3271E+11 km^3/s^2                                          
Small-body perts: Yes                             {source: SB441-N16}
Atmos refraction: NO (AIRLESS)
RA format       : HMS
Time format     : CAL 
Calendar mode   : Mixed Julian/Gregorian
RTS-only print  : NO       
EOP file        : eop.250306.p250602                                           
EOP coverage    : DATA-BASED 1962-JAN-20 TO 2025-MAR-06. PREDICTS-> 2025-JUN-01
Units conversion: 1 au= 149597870.700 km, c= 299792.458 km/s, 1 day= 86400.0 s 
Table cut-offs 1: Elevation (-90.0deg=NO ),Airmass (>38.000=NO), Daylight (YES)
Table cut-offs 2: Solar elongation (  0.0,180.0=NO ),Local Hour Angle( 0.0=NO )
Table cut-offs 3: RA/DEC angular rate (     0.0=NO )                           
*******************************************************************************
Initial IAU76/J2000 heliocentric ecliptic osculating elements (au, days, deg.):
  EPOCH=  2458428.5 ! 2018-Nov-06.00 (TDB)         Residual RMS= .27219        
   EC= .3884608603153671   QR= 1.011903292497374   TP= 2458433.1511739166      
   OM= 228.4137592171332   W=  180.2469578564258   IN= 3.355185598403424       
  Equivalent ICRF heliocentric cartesian coordinates (au, au/d):
   X= 7.364971791856070E-01  Y= 6.361813492829538E-01  Z= 2.815132693616627E-01
  VX=-1.417073247356795E-02 VY= 1.354428742085641E-02 VZ= 4.590405825264917E-03
Asteroid physical parameters (km, seconds, rotational period in hours):        
   GM= n.a.                RAD= n.a.               ROTPER= n.a.                
   H= 26.2                 G= .150                 B-V= n.a.                   
                           ALBEDO= n.a.            STYP= n.a.                  
*******************************************************************************
 Date__(UT)__HR:MN     R.A._________(ICRF)_________DEC
******************************************************
$$SOE
 2018-Dec-24 03:59 C   07 49 27.725120 +01 39 51.67586
 2018-Dec-24 04:00 C   07 49 27.709068 +01 39 51.94722
 2018-Dec-24 04:01 C   07 49 27.692952 +01 39 52.21861
 2018-Dec-24 04:02 C   07 49 27.676772 +01 39 52.49002
 2018-Dec-24 04:03 C   07 49 27.660527 +01 39 52.76147
 2018-Dec-24 04:04 C   07 49 27.644218 +01 39 53.03294
 2018-Dec-24 04:05 C   07 49 27.627844 +01 39 53.30445
 2018-Dec-24 04:06 C   07 49 27.611405 +01 39 53.57598
 2018-Dec-24 04:07 C   07 49 27.594902 +01 39 53.84754
 2018-Dec-24 04:08 C   07 49 27.578333 +01 39 54.11913
 2018-Dec-24 04:09 C   07 49 27.561698 +01 39 54.39074
 2018-Dec-24 04:10 C   07 49 27.544999 +01 39 54.66239
 2018-Dec-24 04:11 C   07 49 27.528233 +01 39 54.93406
 2018-Dec-24 04:12 C   07 49 27.511402 +01 39 55.20576
 2018-Dec-24 04:13 C   07 49 27.494506 +01 39 55.47749
 2018-Dec-24 04:14 N   07 49 27.477543 +01 39 55.74924
 2018-Dec-24 04:15 N   07 49 27.460514 +01 39 56.02103
 2018-Dec-24 04:16 N   07 49 27.443418 +01 39 56.29284
 2018-Dec-24 04:17 N   07 49 27.426256 +01 39 56.56468
 2018-Dec-24 04:18 N   07 49 27.409028 +01 39 56.83654
 2018-Dec-24 04:19 N   07 49 27.391733 +01 39 57.10843
 2018-Dec-24 04:20 N   07 49 27.374371 +01 39 57.38035
 2018-Dec-24 04:21 N   07 49 27.356942 +01 39 57.65230
 2018-Dec-24 04:22 N   07 49 27.339445 +01 39 57.92427
 2018-Dec-24 04:23 N   07 49 27.321882 +01 39 58.19627
 2018-Dec-24 04:24 N   07 49 27.304251 +01 39 58.46829
 2018-Dec-24 04:25 N   07 49 27.286553 +01 39 58.74034
 2018-Dec-24 04:26 N   07 49 27.268787 +01 39 59.01242
 2018-Dec-24 04:27 N   07 49 27.250953 +01 39 59.28452
 2018-Dec-24 04:28 N   07 49 27.233051 +01 39 59.55665
 2018-Dec-24 04:29 N   07 49 27.215081 +01 39 59.82881
 2018-Dec-24 04:30 N   07 49 27.197043 +01 40 00.10099
 2018-Dec-24 04:31 N   07 49 27.178937 +01 40 00.37319
 2018-Dec-24 04:32 N   07 49 27.160763 +01 40 00.64542
 2018-Dec-24 04:33 N   07 49 27.142520 +01 40 00.91768
 2018-Dec-24 04:34 N   07 49 27.124208 +01 40 01.18996
 2018-Dec-24 04:35 N   07 49 27.105827 +01 40 01.46227
 2018-Dec-24 04:36 N   07 49 27.087378 +01 40 01.73460
 2018-Dec-24 04:37 N   07 49 27.068860 +01 40 02.00695
 2018-Dec-24 04:38 N   07 49 27.050272 +01 40 02.27934
 2018-Dec-24 04:39 N   07 49 27.031616 +01 40 02.55174
 2018-Dec-24 04:40 N   07 49 27.012890 +01 40 02.82417
 2018-Dec-24 04:41 A   07 49 26.994094 +01 40 03.09662
 2018-Dec-24 04:42 A   07 49 26.975229 +01 40 03.36910
 2018-Dec-24 04:43 A   07 49 26.956295 +01 40 03.64160
 2018-Dec-24 04:44 A   07 49 26.937290 +01 40 03.91413
 2018-Dec-24 04:45 A   07 49 26.918216 +01 40 04.18668
 2018-Dec-24 04:46 A   07 49 26.899072 +01 40 04.45925
 2018-Dec-24 04:47 A   07 49 26.879858 +01 40 04.73184
 2018-Dec-24 04:48 A   07 49 26.860574 +01 40 05.00446
 2018-Dec-24 04:49 A   07 49 26.841219 +01 40 05.27711
 2018-Dec-24 04:50 A   07 49 26.821794 +01 40 05.54977
 2018-Dec-24 04:51 A   07 49 26.802299 +01 40 05.82246
 2018-Dec-24 04:52 A   07 49 26.782733 +01 40 06.09517
 2018-Dec-24 04:53 A   07 49 26.763096 +01 40 06.36790
 2018-Dec-24 04:54 A   07 49 26.743389 +01 40 06.64066
 2018-Dec-24 04:55 A   07 49 26.723611 +01 40 06.91344
 2018-Dec-24 04:56 A   07 49 26.703762 +01 40 07.18624
 2018-Dec-24 04:57 A   07 49 26.683842 +01 40 07.45906
 2018-Dec-24 04:58 A   07 49 26.663851 +01 40 07.73191
 2018-Dec-24 04:59 A   07 49 26.643789 +01 40 08.00477
 2018-Dec-24 05:00 A   07 49 26.623656 +01 40 08.27766
 2018-Dec-24 05:01 A   07 49 26.603451 +01 40 08.55057
 2018-Dec-24 05:02 A   07 49 26.583175 +01 40 08.82350
 2018-Dec-24 05:03 A   07 49 26.562827 +01 40 09.09646
 2018-Dec-24 05:04 A   07 49 26.542408 +01 40 09.36943
 2018-Dec-24 05:05 A   07 49 26.521917 +01 40 09.64243
 2018-Dec-24 05:06 A   07 49 26.501354 +01 40 09.91544
 2018-Dec-24 05:07 A   07 49 26.480720 +01 40 10.18848
 2018-Dec-24 05:08  m  07 49 26.460014 +01 40 10.46154
 2018-Dec-24 05:09  m  07 49 26.439235 +01 40 10.73461
 2018-Dec-24 05:10  m  07 49 26.418385 +01 40 11.00771
 2018-Dec-24 05:11  m  07 49 26.397463 +01 40 11.28083
 2018-Dec-24 05:12  m  07 49 26.376469 +01 40 11.55397
 2018-Dec-24 05:13  m  07 49 26.355402 +01 40 11.82713
 2018-Dec-24 05:14  m  07 49 26.334263 +01 40 12.10031
 2018-Dec-24 05:15  m  07 49 26.313052 +01 40 12.37351
 2018-Dec-24 05:16  m  07 49 26.291768 +01 40 12.64672
 2018-Dec-24 05:17  m  07 49 26.270412 +01 40 12.91996
 2018-Dec-24 05:18  m  07 49 26.248984 +01 40 13.19322
 2018-Dec-24 05:19  m  07 49 26.227482 +01 40 13.46649
 2018-Dec-24 05:20  m  07 49 26.205909 +01 40 13.73979
 2018-Dec-24 05:21  m  07 49 26.184262 +01 40 14.01310
 2018-Dec-24 05:22  m  07 49 26.162543 +01 40 14.28643
 2018-Dec-24 05:23  m  07 49 26.140751 +01 40 14.55979
 2018-Dec-24 05:24  m  07 49 26.118886 +01 40 14.83316
 2018-Dec-24 05:25  m  07 49 26.096948 +01 40 15.10654
 2018-Dec-24 05:26  m  07 49 26.074938 +01 40 15.37995
 2018-Dec-24 05:27  m  07 49 26.052854 +01 40 15.65337
 2018-Dec-24 05:28  m  07 49 26.030697 +01 40 15.92682
 2018-Dec-24 05:29  m  07 49 26.008467 +01 40 16.20028
 2018-Dec-24 05:30  m  07 49 25.986164 +01 40 16.47376
 2018-Dec-24 05:31  m  07 49 25.963788 +01 40 16.74725
 2018-Dec-24 05:32  m  07 49 25.941339 +01 40 17.02076
 2018-Dec-24 05:33  m  07 49 25.918816 +01 40 17.29429
 2018-Dec-24 05:34  m  07 49 25.896221 +01 40 17.56784
 2018-Dec-24 05:35  m  07 49 25.873552 +01 40 17.84141
 2018-Dec-24 05:36  m  07 49 25.850809 +01 40 18.11499
 2018-Dec-24 05:37  m  07 49 25.827993 +01 40 18.38859
 2018-Dec-24 05:38  m  07 49 25.805104 +01 40 18.66220
 2018-Dec-24 05:39  m  07 49 25.782141 +01 40 18.93583
 2018-Dec-24 05:40  m  07 49 25.759105 +01 40 19.20948
 2018-Dec-24 05:41  m  07 49 25.735995 +01 40 19.48314
 2018-Dec-24 05:42  m  07 49 25.712812 +01 40 19.75682
 2018-Dec-24 05:43  m  07 49 25.689556 +01 40 20.03052
 2018-Dec-24 05:44  m  07 49 25.666225 +01 40 20.30423
 2018-Dec-24 05:45  m  07 49 25.642821 +01 40 20.57796
 2018-Dec-24 05:46  m  07 49 25.619344 +01 40 20.85170
 2018-Dec-24 05:47  m  07 49 25.595793 +01 40 21.12546
 2018-Dec-24 05:48  r  07 49 25.572168 +01 40 21.39923
 2018-Dec-24 05:49  m  07 49 25.548469 +01 40 21.67302
 2018-Dec-24 05:50  m  07 49 25.524697 +01 40 21.94683
 2018-Dec-24 05:51  m  07 49 25.500852 +01 40 22.22064
 2018-Dec-24 05:52  m  07 49 25.476932 +01 40 22.49448
 2018-Dec-24 05:53  m  07 49 25.452939 +01 40 22.76833
 2018-Dec-24 05:54  m  07 49 25.428872 +01 40 23.04219
 2018-Dec-24 05:55  m  07 49 25.404731 +01 40 23.31606
 2018-Dec-24 05:56  m  07 49 25.380517 +01 40 23.58996
 2018-Dec-24 05:57  m  07 49 25.356228 +01 40 23.86386
 2018-Dec-24 05:58  m  07 49 25.331867 +01 40 24.13778
 2018-Dec-24 05:59  m  07 49 25.307431 +01 40 24.41171
 2018-Dec-24 06:00  m  07 49 25.282921 +01 40 24.68566
 2018-Dec-24 06:01  m  07 49 25.258338 +01 40 24.95962
